# TLEs retrieved from www.space-track.org
# Copy from https://www.space-track.org/basicspacedata/query/class/tle_latest/NORAD_CAT_ID/58928U,25544U,25994U,27424U,28376U,29107U,29108U,37849U,42063U,40697U,43613U,59908U,59881U/EPOCH/%3Enow-10/ORDINAL/1/orderby/EPOCH%20desc/limit/14/format/3le/metadata/false
# Auto-updated from celestrak on: 2026-05-19
0 PREFIRE-2
1 59881U 24099A   26138.39244279  .00002250  00000+0  10490-3 0  9990
2 59881  97.4110 355.0799 0010871 316.5396  43.4982 15.20853877109605
0 PREFIRE-1               
1 59965U 24108A   26138.24886370  .00002988  00000+0  12871-3 0  9995
2 59965  97.5287 292.9582 0010916 353.5562   6.5533 15.23336126108033
#0 CLOUDSAT
#1 29107U 06016A   25274.52185104  .00003961  00000+0  46471-3 0  9991
#2 29107  98.4215 292.1971 0006752  89.3716 270.8271 14.85567608 36090
0 AQUA
1 27424U 02022A   26138.89477692  .00000465  00000+0  10231-3 0  9991
2 27424  98.4262 107.5968 0002037  71.4983 314.6468 14.62107801278999
0 SENTINEL 2B
1 42063U 17013A   26138.97669914 -.00000207  00000+0 -62463-4 0  9993
2 42063  98.5697 214.1616 0001273  90.5909 269.5420 14.30818407480463
0 NPP
1 37849U 11061A   26138.94778677  .00000049  00000+0  44144-4 0  9998
2 37849  98.7944  80.0258 0002751  63.8611 296.2848 14.19510614754295
0 TERRA
1 25994U 99068A   26138.93361517  .00000236  00000+0  56991-4 0  9990
2 25994  97.9476 189.6368 0001657   1.4862 171.9389 14.61077185405337
0 SENTINEL 2A
1 40697U 15028A   26138.98391731 -.00000303  00000+0 -98897-4 0  9995
2 40697  98.5691 214.2483 0001183  84.4840 275.6478 14.30812949569551
0 ISS (ZARYA)
1 25544U 98067A   26138.84297498  .00006222  00000+0  11987-3 0  9991
2 25544  51.6325  85.3646 0007538  73.2548 286.9268 15.49265459567209
0 CALIPSO
1 29108U 06016B   26138.87825201  .00000579  00000+0  10701-3 0  9998
2 29108  98.4482 153.5434 0001565  75.5568 284.5810 14.69287432 68755
0 ICESAT-2
1 43613U 18070A   26138.88591257  .00001873  00000+0  67950-4 0  9997
2 43613  92.0046 283.0701 0002397 122.7180 237.4301 15.28256217427982
0 EARTHCARE
1 59908U 24101A   26138.61939384  .00007795  00000+0  10918-3 0  9991
2 59908  97.0491 265.5452 0001577 102.1116 258.0317 15.57055431111964
0 AURA
1 28376U 04026A   26138.88527712  .00000466  00000+0  10425-3 0  9998
2 28376  98.3402  95.1004 0001628  74.1619 285.9760 14.61279090161934
0 PACE
1 58928U 24025A   26138.56419697  .00000232  00000+0  51578-4 0  9998
2 58928  98.0951  70.3205 0002329  28.5126 331.6205 14.65516021121592
0 CRYOSAT-2
1 36508U 10013A   26138.92828164  .00000106  00000+0  25500-4 0  9999
2 36508  92.0323 270.1949 0002557  85.8517 274.2983 14.51898912853838
0 NOAA 20 (JPSS-1)        
1 43013U 17073A   26138.89040107  .00000021  00000+0  31010-4 0  9999
2 43013  98.7763  78.6153 0001315  44.8506 315.2776 14.19505675440316
0 NOAA 21 (JPSS-2)        
1 54234U 22150A   26138.92437299  .00000035  00000+0  37364-4 0  9997
2 54234  98.7052  78.2066 0000596 308.7195  51.3928 14.19559581182392
0 METOP-B                 
1 38771U 12049A   26138.90674459  .00000076  00000+0  54501-4 0  9997
2 38771  98.6523 190.9872 0003463  81.0652 279.0917 14.21423893709104
0 METOP-C                 
1 43689U 18087A   26138.85718759  .00000073  00000+0  53018-4 0  9994
2 43689  98.6659 198.9942 0000469 145.6918 214.4290 14.21503370390662
0 ARCTIC WEATHER SATELLITE
1 60543U 24149CD  26138.93709682  .00000561  00000+0  64022-4 0  9991
2 60543  97.6808 210.2370 0002143 164.2857 195.8428 14.89801789 94944
0 METOP-SGA1              
1 65159U 25172A   26138.15361900  .00000025  00000+0  31277-4 0  9998
2 65159  98.6661 198.4269 0001183  82.6277 277.5035 14.21504283 39526
